GLOBALSTAR M084         
1 38040U 11080A   25334.11028609 -.00000088  00000+0  89088-4 0  9992
2 38040  52.0013 263.3448 0000980  51.4761 324.0500 12.62265940643621
GLOBALSTAR M080         
1 38041U 11080B   25334.08127105 -.00000092  00000+0  66097-4 0  9990
2 38041  52.0066 265.0821 0000611 100.1440 273.4237 12.62271602643740
GLOBALSTAR M082         
1 38042U 11080C   25333.93830259 -.00000085  00000+0  10609-3 0  9994
2 38042  52.0066 220.9978 0000797  91.7588 281.5058 12.62265539644437
GLOBALSTAR M092         
1 38043U 11080D   25334.08380536 -.00000105  00000+0 -90459-5 0  9997
2 38043  52.0105 310.9401 0000430  58.8529  15.4155 12.62267766642902
GLOBALSTAR M090         
1 38044U 11080E   25334.15725633 -.00000079  00000+0  14050-3 0  9997
2 38044  52.0108 214.2234 0000796  71.8869  95.7889 12.62264830644572
GLOBALSTAR M086         
1 38045U 11080F   25334.09853904 -.00000078  00000+0  14522-3 0  9997
2 38045  51.9883 214.6558 0001132  12.0223 137.5734 12.62280491644519
